{"fetched_at":"2026-03-29T02:12:04Z","count":15717,"tles":[{"name":"2024-173E","line1":"1 61231U 24173E   26084.31243458  .00001877  00000+0  92452-4 0  9998","line2":"2 61231  97.4119 158.0503 0001679  89.1222 271.0205 15.19175426 83026","category":"Other"}]}